NORAD_CAT_ID,OBJECT_NAME,OBJECT_TYPE,EPOCH,MEAN_MOTION,ECCENTRICITY,INCLINATION,RA_OF_ASC_NODE,ARG_OF_PERICENTER,MEAN_ANOMALY,BSTAR,MEAN_MOTION_DOT,MEAN_MOTION_DDOT,TLE_LINE0,TLE_LINE1,TLE_LINE2,SEMIMAJOR_AXIS,PERIOD,APOGEE,PERIGEE,DECAYED
53176.0,STARLINK-4294,PAYLOAD,2024-08-18 03:43:10,15.08839686,0.0001465,53.2164,181.2839,86.5878,273.5282,-5.1968e-05,-1.115e-05,0.0,0 STARLINK-4294,1 53176U 22083AW  24231.15498167 -.00001115  00000-0 -51968-4 0  9993,2 53176  53.2164 181.2839 0001465  86.5878 273.5282 15.08839686116376,6917.881,95.438,540.76,538.733,0.0
53176.0,STARLINK-4294,PAYLOAD,2024-08-18 19:37:01,15.08838542,0.0001461,53.2168,178.3109,95.9955,264.1204,0.00010404,1.368e-05,0.0,0 STARLINK-4294,1 53176U 22083AW  24231.81738194  .00001368  00000-0  10404-3 0  9990,2 53176  53.2168 178.3109 0001461  95.9955 264.1204 15.08838542115833,6917.885,95.438,540.761,538.739,0.0
53176.0,STARLINK-4294,PAYLOAD,2024-08-19 05:09:19,15.08850697,0.000147,53.217,176.5287,101.9984,258.1173,0.00014139,1.964e-05,0.0,0 STARLINK-4294,1 53176U 22083AW  24232.21481462  .00001964  00000-0  14139-3 0  9999,2 53176  53.2170 176.5287 0001470 101.9984 258.1173 15.08850697116534,6917.848,95.437,540.73,538.696,0.0
53176.0,STARLINK-4294,PAYLOAD,2024-08-19 13:06:15,15.08846235,0.0001267,53.2164,175.0418,87.7883,272.3254,0.00012327,1.675e-05,0.0,0 STARLINK-4294,1 53176U 22083AW  24232.54601623  .00001675  00000-0  12327-3 0  9994,2 53176  53.2164 175.0418 0001267  87.7883 272.3254 15.08846235115945,6917.861,95.437,540.603,538.85,0.0
53176.0,STARLINK-4294,PAYLOAD,2024-08-20 05:00:08,15.08832173,0.0001672,53.2166,172.0679,81.9695,278.1487,-7.6193e-06,-4.09e-06,0.0,0 STARLINK-4294,1 53176U 22083AW  24233.20842854 -.00000409  00000-0 -76193-5 0  9990,2 53176  53.2166 172.0679 0001672  81.9695 278.1487 15.08832173116680,6917.904,95.438,540.926,538.613,0.0
53176.0,STARLINK-4294,PAYLOAD,2024-08-21 03:15:31,15.08850365,0.0001613,53.2166,167.9035,81.5391,278.5784,0.00027973,4.168e-05,0.0,0 STARLINK-4294,1 53176U 22083AW  24234.13578120  .00004168  00000-0  27973-3 0  9999,2 53176  53.2166 167.9035 0001613  81.5391 278.5784 15.08850365116826,6917.849,95.437,540.83,538.598,0.0
53176.0,STARLINK-4294,PAYLOAD,2024-08-21 19:09:23,15.08843018,0.0001944,53.2143,164.9371,74.0283,286.0923,0.00026736,3.97e-05,0.0,0 STARLINK-4294,1 53176U 22083AW  24234.79818910  .00003970  00000-0  26736-3 0  9991,2 53176  53.2143 164.9371 0001944  74.0283 286.0923 15.08843018116922,6917.871,95.437,541.081,538.391,0.0
